{
  "norad_id": 68563,
  "name": "STARLINK-36238",
  "history": [
    {
      "epoch": "2026-04-09T20:00:01.999008Z",
      "apogee_km": 271.55732888240163,
      "perigee_km": 270.52670613468763,
      "latitude_deg": -24.069281820479855,
      "longitude_deg": 71.24840385759455,
      "height_km": 277.9511969661625,
      "semi_major_axis_km": 6649.179017508544,
      "eccentricity": 7.75e-05,
      "inclination_deg": 53.1586,
      "raan_deg": 228.7692,
      "arg_perigee_deg": 55.0509,
      "mean_anomaly_deg": 274.5855,
      "mean_motion_rev_day": 16.01218958
    }
  ]
}