STARLINK-36238          
1 68563U 26070X   26099.83335647 -.01032323  35654-3 -18303-2 0  9997
2 68563  53.1586 228.7692 0000775  55.0509 274.5855 16.01218958  2332
